IRIDIUM 126             
1 42809U 17039G   23237.43512438  .00000106  00000+0  30714-4 0  9995
2 42809  86.3925  62.7329 0002185  96.0612 264.0832 14.34218727322794
IRIDIUM 124             
1 42810U 17039H   23237.40127848  .00000500  00000+0  14274-3 0  9991
2 42810  86.4543 359.5014 0002334  88.5442 271.6026 14.43278930327015
IRIDIUM 128             
1 42811U 17039J   23237.14679164  .00000112  00000+0  32752-4 0  9997
2 42811  86.3926  94.4079 0002225  88.6491 271.4960 14.34217734322778
IRIDIUM 121             
1 42812U 17039K   23237.45414880  .00000115  00000+0  33834-4 0  9999
2 42812  86.3926  62.7462 0002137  91.6702 268.4739 14.34217512322789
IRIDIUM 133             
1 42955U 17061A   23237.10873745  .00000273  00000+0  90569-4 0  9996
2 42955  86.3929  94.5165 0002168  93.5156 266.6288 14.34214309307560
IRIDIUM 100             
1 42956U 17061B   23237.10239145  .00000008  00000+0 -43641-5 0  9994
2 42956  86.3924  94.4624 0002082  94.8918 265.2515 14.34214793307587
IRIDIUM 122             
1 42957U 17061C   23237.07069566  .00000287  00000+0  95374-4 0  9996
2 42957  86.3925  94.4728 0002311  90.1766 269.9694 14.34218799307566
IRIDIUM 129             
1 42958U 17061D   23237.09605046  .00000265  00000+0  87673-4 0  9997
2 42958  86.3929  94.5189 0002161  89.1582 270.9862 14.34216129307586
